CCSDS_OMM_VERS = 2.0
CREATION_DATE  = 
ORIGINATOR     = 

OBJECT_NAME    = STARLINK-35262
OBJECT_ID      = 2025-221AA
CENTER_NAME    = EARTH
REF_FRAME      = TEME
TIME_SYSTEM    = UTC
MEAN_ELEMENT_THEORY = SGP/SGP4

EPOCH          = 2025-10-27T15:12:29.871648
MEAN_MOTION    = 15.49322826
ECCENTRICITY   = .00018224
INCLINATION    = 53.1588
RA_OF_ASC_NODE = 347.6718
ARG_OF_PERICENTER = 70.7211
MEAN_ANOMALY   = 289.3995

EPHEMERIS_TYPE = 0
CLASSIFICATION_TYPE = U
NORAD_CAT_ID   = 65847
ELEMENT_SET_NO = 999
REV_AT_EPOCH   = 569
BSTAR          = .11086886E-2
MEAN_MOTION_DOT = .61732E-3
MEAN_MOTION_DDOT = 0

CCSDS_OMM_VERS = 2.0
CREATION_DATE  = 
ORIGINATOR     = 

OBJECT_NAME    = STARLINK-35308
OBJECT_ID      = 2025-221AB
CENTER_NAME    = EARTH
REF_FRAME      = TEME
TIME_SYSTEM    = UTC
MEAN_ELEMENT_THEORY = SGP/SGP4

EPOCH          = 2025-10-27T13:41:05.350848
MEAN_MOTION    = 15.49307991
ECCENTRICITY   = .00014181
INCLINATION    = 53.1597
RA_OF_ASC_NODE = 347.9858
ARG_OF_PERICENTER = 71.4785
MEAN_ANOMALY   = 288.6379

EPHEMERIS_TYPE = 0
CLASSIFICATION_TYPE = U
NORAD_CAT_ID   = 65848
ELEMENT_SET_NO = 999
REV_AT_EPOCH   = 568
BSTAR          = .67079547E-3
MEAN_MOTION_DOT = .37034E-3
MEAN_MOTION_DDOT = 0

CCSDS_OMM_VERS = 2.0
CREATION_DATE  = 
ORIGINATOR     = 

OBJECT_NAME    = STARLINK-35231
OBJECT_ID      = 2025-221AC
CENTER_NAME    = EARTH
REF_FRAME      = TEME
TIME_SYSTEM    = UTC
MEAN_ELEMENT_THEORY = SGP/SGP4

EPOCH          = 2025-10-27T12:07:12.442368
MEAN_MOTION    = 15.49301839
ECCENTRICITY   = .00013435
INCLINATION    = 53.1600
RA_OF_ASC_NODE = 348.2909
ARG_OF_PERICENTER = 81.2607
MEAN_ANOMALY   = 278.8554

EPHEMERIS_TYPE = 0
CLASSIFICATION_TYPE = U
NORAD_CAT_ID   = 65849
ELEMENT_SET_NO = 999
REV_AT_EPOCH   = 567
BSTAR          = .1226271E-2
MEAN_MOTION_DOT = .68334E-3
MEAN_MOTION_DDOT = 0

CCSDS_OMM_VERS = 2.0
CREATION_DATE  = 
ORIGINATOR     = 

OBJECT_NAME    = STARLINK-35252
OBJECT_ID      = 2025-221AD
CENTER_NAME    = EARTH
REF_FRAME      = TEME
TIME_SYSTEM    = UTC
MEAN_ELEMENT_THEORY = SGP/SGP4

EPOCH          = 2025-10-27T13:39:06.579360
MEAN_MOTION    = 15.49303077
ECCENTRICITY   = .00011734
INCLINATION    = 53.1593
RA_OF_ASC_NODE = 347.9777
ARG_OF_PERICENTER = 89.7801
MEAN_ANOMALY   = 270.3342

EPHEMERIS_TYPE = 0
CLASSIFICATION_TYPE = U
NORAD_CAT_ID   = 65850
ELEMENT_SET_NO = 999
REV_AT_EPOCH   = 568
BSTAR          = .66082585E-3
MEAN_MOTION_DOT = .36468E-3
MEAN_MOTION_DDOT = 0

CCSDS_OMM_VERS = 2.0
CREATION_DATE  = 
ORIGINATOR     = 

OBJECT_NAME    = SHIYAN-30 01
OBJECT_ID      = 2025-222A
CENTER_NAME    = EARTH
REF_FRAME      = TEME
TIME_SYSTEM    = UTC
MEAN_ELEMENT_THEORY = SGP/SGP4

EPOCH          = 2025-10-27T22:16:25.140000
MEAN_MOTION    = 14.92992051
ECCENTRICITY   = .00060999
INCLINATION    = 34.9879
RA_OF_ASC_NODE = 215.7640
ARG_OF_PERICENTER = 220.6457
MEAN_ANOMALY   = 139.3793

EPHEMERIS_TYPE = 0
CLASSIFICATION_TYPE = U
NORAD_CAT_ID   = 65851
ELEMENT_SET_NO = 999
REV_AT_EPOCH   = 431
BSTAR          = .40917871E-3
MEAN_MOTION_DOT = .431E-4
MEAN_MOTION_DDOT = 0

CCSDS_OMM_VERS = 2.0
CREATION_DATE  = 
ORIGINATOR     = 

OBJECT_NAME    = SHIYAN-30 02
OBJECT_ID      = 2025-222B
CENTER_NAME    = EARTH
REF_FRAME      = TEME
TIME_SYSTEM    = UTC
MEAN_ELEMENT_THEORY = SGP/SGP4

EPOCH          = 2025-10-27T22:15:25.573248
MEAN_MOTION    = 14.92992839
ECCENTRICITY   = .00073695
INCLINATION    = 34.9965
RA_OF_ASC_NODE = 215.7706
ARG_OF_PERICENTER = 222.5385
MEAN_ANOMALY   = 137.4750

EPHEMERIS_TYPE = 0
CLASSIFICATION_TYPE = U
NORAD_CAT_ID   = 65852
ELEMENT_SET_NO = 999
REV_AT_EPOCH   = 429
BSTAR          = .40240856E-3
MEAN_MOTION_DOT = .4239E-4
MEAN_MOTION_DDOT = 0

CCSDS_OMM_VERS = 2.0
CREATION_DATE  = 
ORIGINATOR     = 

OBJECT_NAME    = CZ-2D R/B
OBJECT_ID      = 2025-222C
CENTER_NAME    = EARTH
REF_FRAME      = TEME
TIME_SYSTEM    = UTC
MEAN_ELEMENT_THEORY = SGP/SGP4

EPOCH          = 2025-10-27T22:33:46.713600
MEAN_MOTION    = 14.99325954
ECCENTRICITY   = .00566763
INCLINATION    = 34.9021
RA_OF_ASC_NODE = 213.6787
ARG_OF_PERICENTER = 224.1017
MEAN_ANOMALY   = 135.5160

EPHEMERIS_TYPE = 0
CLASSIFICATION_TYPE = U
NORAD_CAT_ID   = 65853
ELEMENT_SET_NO = 999
REV_AT_EPOCH   = 433
BSTAR          = .21703651E-3
MEAN_MOTION_DOT = .2773E-4
MEAN_MOTION_DDOT = 0

CCSDS_OMM_VERS = 2.0
CREATION_DATE  = 
ORIGINATOR     = 

OBJECT_NAME    = STARLINK-35208
OBJECT_ID      = 2025-223A
CENTER_NAME    = EARTH
REF_FRAME      = TEME
TIME_SYSTEM    = UTC
MEAN_ELEMENT_THEORY = SGP/SGP4

EPOCH          = 2025-10-27T20:00:01.000224
MEAN_MOTION    = 15.39612105
ECCENTRICITY   = .00010862
INCLINATION    = 53.1587
RA_OF_ASC_NODE = 193.9962
ARG_OF_PERICENTER = 96.6668
MEAN_ANOMALY   = 4.1193

EPHEMERIS_TYPE = 0
CLASSIFICATION_TYPE = U
NORAD_CAT_ID   = 65854
ELEMENT_SET_NO = 999
REV_AT_EPOCH   = 511
BSTAR          = .13289373E-3
MEAN_MOTION_DOT = .4918E-4
MEAN_MOTION_DDOT = 0

CCSDS_OMM_VERS = 2.0
CREATION_DATE  = 
ORIGINATOR     = 

OBJECT_NAME    = STARLINK-35200
OBJECT_ID      = 2025-223B
CENTER_NAME    = EARTH
REF_FRAME      = TEME
TIME_SYSTEM    = UTC
MEAN_ELEMENT_THEORY = SGP/SGP4

EPOCH          = 2025-10-27T23:43:33.368160
MEAN_MOTION    = 15.49338179
ECCENTRICITY   = .00008372
INCLINATION    = 53.1591
RA_OF_ASC_NODE = 193.0305
ARG_OF_PERICENTER = 92.0821
MEAN_ANOMALY   = 268.0284

EPHEMERIS_TYPE = 0
CLASSIFICATION_TYPE = U
NORAD_CAT_ID   = 65855
ELEMENT_SET_NO = 999
REV_AT_EPOCH   = 385
BSTAR          = .16070031E-2
MEAN_MOTION_DOT = .90056E-3
MEAN_MOTION_DDOT = 0

CCSDS_OMM_VERS = 2.0
CREATION_DATE  = 
ORIGINATOR     = 

OBJECT_NAME    = STARLINK-35459
OBJECT_ID      = 2025-223C
CENTER_NAME    = EARTH
REF_FRAME      = TEME
TIME_SYSTEM    = UTC
MEAN_ELEMENT_THEORY = SGP/SGP4

EPOCH          = 2025-10-27T20:00:01.000224
MEAN_MOTION    = 15.39585290
ECCENTRICITY   = .00009912
INCLINATION    = 53.1594
RA_OF_ASC_NODE = 193.8424
ARG_OF_PERICENTER = 117.7346
MEAN_ANOMALY   = 60.3537

EPHEMERIS_TYPE = 0
CLASSIFICATION_TYPE = U
NORAD_CAT_ID   = 65856
ELEMENT_SET_NO = 999
REV_AT_EPOCH   = 511
BSTAR          = .5384225E-3
MEAN_MOTION_DOT = .21172E-3
MEAN_MOTION_DDOT = 0

CCSDS_OMM_VERS = 2.0
CREATION_DATE  = 
ORIGINATOR     = 

OBJECT_NAME    = STARLINK-35489
OBJECT_ID      = 2025-223D
CENTER_NAME    = EARTH
REF_FRAME      = TEME
TIME_SYSTEM    = UTC
MEAN_ELEMENT_THEORY = SGP/SGP4

EPOCH          = 2025-10-27T22:09:40.576320
MEAN_MOTION    = 15.49327307
ECCENTRICITY   = .00009894
INCLINATION    = 53.1593
RA_OF_ASC_NODE = 193.3346
ARG_OF_PERICENTER = 96.7684
MEAN_ANOMALY   = 263.3438

EPHEMERIS_TYPE = 0
CLASSIFICATION_TYPE = U
NORAD_CAT_ID   = 65857
ELEMENT_SET_NO = 999
REV_AT_EPOCH   = 384
BSTAR          = .13007728E-2
MEAN_MOTION_DOT = .72617E-3
MEAN_MOTION_DDOT = 0

CCSDS_OMM_VERS = 2.0
CREATION_DATE  = 
ORIGINATOR     = 

OBJECT_NAME    = STARLINK-35199
OBJECT_ID      = 2025-223E
CENTER_NAME    = EARTH
REF_FRAME      = TEME
TIME_SYSTEM    = UTC
MEAN_ELEMENT_THEORY = SGP/SGP4

EPOCH          = 2025-10-27T20:00:01.000224
MEAN_MOTION    = 15.45776542
ECCENTRICITY   = .00014206
INCLINATION    = 53.1596
RA_OF_ASC_NODE = 193.7698
ARG_OF_PERICENTER = 95.8297
MEAN_ANOMALY   = 118.6934

EPHEMERIS_TYPE = 0
CLASSIFICATION_TYPE = U
NORAD_CAT_ID   = 65858
ELEMENT_SET_NO = 999
REV_AT_EPOCH   = 511
BSTAR          = -.47323935E-1
MEAN_MOTION_DOT = -.2068642E-1
MEAN_MOTION_DDOT = 0

