STARLINK-35262          
1 65847U 25221AA  25300.63367907  .00061732  00000+0  11087-2 0  9990
2 65847  53.1588 347.6718 0001822  70.7211 289.3995 15.49322826  5696
STARLINK-35308          
1 65848U 25221AB  25300.57020082  .00037034  00000+0  67080-3 0  9997
2 65848  53.1597 347.9858 0001418  71.4785 288.6379 15.49307991  5683
STARLINK-35231          
1 65849U 25221AC  25300.50500512  .00068334  00000+0  12263-2 0  9991
2 65849  53.1600 348.2909 0001343  81.2607 278.8554 15.49301839  5679
STARLINK-35252          
1 65850U 25221AD  25300.56882615  .00036468  00000+0  66083-3 0  9999
2 65850  53.1593 347.9777 0001173  89.7801 270.3342 15.49303077  5680
SHIYAN-30 01            
1 65851U 25222A   25300.92806875  .00004310  00000+0  40918-3 0  9995
2 65851  34.9879 215.7640 0006099 220.6457 139.3793 14.92992051  4317
SHIYAN-30 02            
1 65852U 25222B   25300.92737932  .00004239  00000+0  40241-3 0  9992
2 65852  34.9965 215.7706 0007369 222.5385 137.4750 14.92992839  4292
CZ-2D R/B               
1 65853U 25222C   25300.94012400  .00002773  00000+0  21704-3 0  9995
2 65853  34.9021 213.6787 0056676 224.1017 135.5160 14.99325954  4331
STARLINK-35208          
1 65854U 25223A   25300.83334491  .00004918  00000+0  13289-3 0  9994
2 65854  53.1587 193.9962 0001086  96.6668   4.1193 15.39612105  5112
STARLINK-35200          
1 65855U 25223B   25300.98858065  .00090056  00000+0  16070-2 0  9997
2 65855  53.1591 193.0305 0000837  92.0821 268.0284 15.49338179  3852
STARLINK-35459          
1 65856U 25223C   25300.83334491  .00021172  00000+0  53842-3 0  9996
2 65856  53.1594 193.8424 0000991 117.7346  60.3537 15.39585290  5116
STARLINK-35489          
1 65857U 25223D   25300.92338630  .00072617  00000+0  13008-2 0  9995
2 65857  53.1593 193.3346 0000989  96.7684 263.3438 15.49327307  3849
STARLINK-35199          
1 65858U 25223E   25300.83334491 -.02068642  00000+0 -47324-1 0  9991
2 65858  53.1596 193.7698 0001420  95.8297 118.6934 15.45776542  5118
